{
  "type": "FeatureCollection",
  "features": [
    {
      "type": "Feature",
      "properties": {
        "norad_id": 33972,
        "name": "COSMOS 2251 DEB",
        "group": "cosmos-2251-debris",
        "lat": 38.58813374553584,
        "lon": -29.948305074980702,
        "alt_km": 855.1205342685635,
        "timestamp": "2025-12-27T14:26:30.914600+00:00",
        "meta_object_name": "COSMOS 2251 DEB",
        "meta_object_id": "1993-036FF",
        "meta_epoch": "2025-12-26T21:46:53.946048",
        "meta_mean_motion": 14.36338237,
        "meta_eccentricity": 0.012408,
        "meta_inclination": 73.9944,
        "meta_ra_of_asc_node": 164.5705,
        "meta_arg_of_pericenter": 329.1123,
        "meta_mean_anomaly": 182.105,
        "meta_ephemeris_type": 0,
        "meta_classification_type": "U",
        "meta_norad_cat_id": 33972,
        "meta_element_set_no": 999,
        "meta_rev_at_epoch": 87277,
        "meta_bstar": 0.0017751,
        "meta_mean_motion_dot": 5.646e-05,
        "meta_mean_motion_ddot": 0,
        "tle_line1": "1 33972U 93036FF  25360.90756882  .00005646  00000+0  17751-2 0  9999",
        "tle_line2": "2 33972  73.9944 164.5705 0124080 329.1123 182.1050 14.36338237872774"
      },
      "geometry": {
        "type": "Point",
        "coordinates": [
          -29.948305074980702,
          38.58813374553584
        ]
      }
    },
    {
      "type": "Feature",
      "properties": {
        "norad_id": 33973,
        "name": "COSMOS 2251 DEB",
        "group": "cosmos-2251-debris",
        "lat": 17.060052098977557,
        "lon": 80.19305724671995,
        "alt_km": 761.0598890818464,
        "timestamp": "2025-12-27T14:26:30.914610+00:00",
        "meta_object_name": "COSMOS 2251 DEB",
        "meta_object_id": "1993-036FG",
        "meta_epoch": "2025-12-27T08:02:05.671104",
        "meta_mean_motion": 14.45406939,
        "meta_eccentricity": 0.0047362,
        "meta_inclination": 74.0087,
        "meta_ra_of_asc_node": 75.6426,
        "meta_arg_of_pericenter": 251.3992,
        "meta_mean_anomaly": 177.4948,
        "meta_ephemeris_type": 0,
        "meta_classification_type": "U",
        "meta_norad_cat_id": 33973,
        "meta_element_set_no": 999,
        "meta_rev_at_epoch": 88811,
        "meta_bstar": 0.00016850543,
        "meta_mean_motion_dot": 5.73e-06,
        "meta_mean_motion_ddot": 0,
        "tle_line1": "1 33973U 93036FG  25361.33478786  .00000573  00000+0  16851-3 0  9997",
        "tle_line2": "2 33973  74.0087  75.6426 0047362 251.3992 177.4948 14.45406939888117"
      },
      "geometry": {
        "type": "Point",
        "coordinates": [
          80.19305724671995,
          17.060052098977557
        ]
      }
    },
    {
      "type": "Feature",
      "properties": {
        "norad_id": 33975,
        "name": "COSMOS 2251 DEB",
        "group": "cosmos-2251-debris",
        "lat": 70.54464391083242,
        "lon": 113.7040235102788,
        "alt_km": 929.2896902730754,
        "timestamp": "2025-12-27T14:26:30.914621+00:00",
        "meta_object_name": "COSMOS 2251 DEB",
        "meta_object_id": "1993-036FJ",
        "meta_epoch": "2025-12-27T05:28:58.224288",
        "meta_mean_motion": 14.00552965,
        "meta_eccentricity": 0.01907264,
        "meta_inclination": 73.8014,
        "meta_ra_of_asc_node": 58.984,
        "meta_arg_of_pericenter": 189.6209,
        "meta_mean_anomaly": 170.1254,
        "meta_ephemeris_type": 0,
        "meta_classification_type": "U",
        "meta_norad_cat_id": 33975,
        "meta_element_set_no": 999,
        "meta_rev_at_epoch": 86032,
        "meta_bstar": 0.00052668889,
        "meta_mean_motion_dot": 8.91e-06,
        "meta_mean_motion_ddot": 0,
        "tle_line1": "1 33975U 93036FJ  25361.22845167  .00000891  00000+0  52669-3 0  9998",
        "tle_line2": "2 33975  73.8014  58.9840 0190726 189.6209 170.1254 14.00552965860322"
      },
      "geometry": {
        "type": "Point",
        "coordinates": [
          113.7040235102788,
          70.54464391083242
        ]
      }
    },
    {
      "type": "Feature",
      "properties": {
        "norad_id": 33980,
        "name": "COSMOS 2251 DEB",
        "group": "cosmos-2251-debris",
        "lat": 33.27550817608979,
        "lon": -159.77059260199465,
        "alt_km": 677.5580720643911,
        "timestamp": "2025-12-27T14:26:30.914631+00:00",
        "meta_object_name": "COSMOS 2251 DEB",
        "meta_object_id": "1993-036FP",
        "meta_epoch": "2025-12-27T05:54:02.026656",
        "meta_mean_motion": 14.58730665,
        "meta_eccentricity": 0.0027756,
        "meta_inclination": 74.0211,
        "meta_ra_of_asc_node": 31.7461,
        "meta_arg_of_pericenter": 174.1558,
        "meta_mean_anomaly": 262.9365,
        "meta_ephemeris_type": 0,
        "meta_classification_type": "U",
        "meta_norad_cat_id": 33980,
        "meta_element_set_no": 999,
        "meta_rev_at_epoch": 89006,
        "meta_bstar": 0.00062085443,
        "meta_mean_motion_dot": 2.885e-05,
        "meta_mean_motion_ddot": 0,
        "tle_line1": "1 33980U 93036FP  25361.24585679  .00002885  00000+0  62085-3 0  9993",
        "tle_line2": "2 33980  74.0211  31.7461 0027756 174.1558 262.9365 14.58730665890061"
      },
      "geometry": {
        "type": "Point",
        "coordinates": [
          -159.77059260199465,
          33.27550817608979
        ]
      }
    },
    {
      "type": "Feature",
      "properties": {
        "norad_id": 33982,
        "name": "COSMOS 2251 DEB",
        "group": "cosmos-2251-debris",
        "lat": 72.83443937867568,
        "lon": 39.22131056422517,
        "alt_km": 667.611003715364,
        "timestamp": "2025-12-27T14:26:30.914641+00:00",
        "meta_object_name": "COSMOS 2251 DEB",
        "meta_object_id": "1993-036FR",
        "meta_epoch": "2025-12-27T08:00:32.603616",
        "meta_mean_motion": 14.6028315,
        "meta_eccentricity": 0.00756126,
        "meta_inclination": 74.0713,
        "meta_ra_of_asc_node": 332.1308,
        "meta_arg_of_pericenter": 12.6013,
        "meta_mean_anomaly": 101.6425,
        "meta_ephemeris_type": 0,
        "meta_classification_type": "U",
        "meta_norad_cat_id": 33982,
        "meta_element_set_no": 999,
        "meta_rev_at_epoch": 89372,
        "meta_bstar": 0.00068802464,
        "meta_mean_motion_dot": 3.429e-05,
        "meta_mean_motion_ddot": 0,
        "tle_line1": "1 33982U 93036FR  25361.33371069  .00003429  00000+0  68802-3 0  9999",
        "tle_line2": "2 33982  74.0713 332.1308 0075612  12.6013 101.6425 14.60283150893721"
      },
      "geometry": {
        "type": "Point",
        "coordinates": [
          39.22131056422517,
          72.83443937867568
        ]
      }
    },
    {
      "type": "Feature",
      "properties": {
        "norad_id": 33983,
        "name": "COSMOS 2251 DEB",
        "group": "cosmos-2251-debris",
        "lat": -42.569546466096355,
        "lon": -45.63874235286128,
        "alt_km": 714.6081155516249,
        "timestamp": "2025-12-27T14:26:30.914652+00:00",
        "meta_object_name": "COSMOS 2251 DEB",
        "meta_object_id": "1993-036FS",
        "meta_epoch": "2025-12-27T06:52:09.516000",
        "meta_mean_motion": 14.50733123,
        "meta_eccentricity": 0.00210529,
        "meta_inclination": 74.0504,
        "meta_ra_of_asc_node": 119.7238,
        "meta_arg_of_pericenter": 221.3497,
        "meta_mean_anomaly": 156.0582,
        "meta_ephemeris_type": 0,
        "meta_classification_type": "U",
        "meta_norad_cat_id": 33983,
        "meta_element_set_no": 999,
        "meta_rev_at_epoch": 88840,
        "meta_bstar": 0.0006663679,
        "meta_mean_motion_dot": 2.601e-05,
        "meta_mean_motion_ddot": 0,
        "tle_line1": "1 33983U 93036FS  25361.28622125  .00002601  00000+0  66637-3 0  9991",
        "tle_line2": "2 33983  74.0504 119.7238 0021052 221.3497 156.0582 14.50733123888401"
      },
      "geometry": {
        "type": "Point",
        "coordinates": [
          -45.63874235286128,
          -42.569546466096355
        ]
      }
    },
    {
      "type": "Feature",
      "properties": {
        "norad_id": 33984,
        "name": "COSMOS 2251 DEB",
        "group": "cosmos-2251-debris",
        "lat": 73.9765668200211,
        "lon": 51.54937886605467,
        "alt_km": 657.1732618381466,
        "timestamp": "2025-12-27T14:26:30.914662+00:00",
        "meta_object_name": "COSMOS 2251 DEB",
        "meta_object_id": "1993-036FT",
        "meta_epoch": "2025-12-27T08:12:26.906976",
        "meta_mean_motion": 14.66493256,
        "meta_eccentricity": 0.00223774,
        "meta_inclination": 74.0096,
        "meta_ra_of_asc_node": 318.9026,
        "meta_arg_of_pericenter": 152.4294,
        "meta_mean_anomaly": 7.8104,
        "meta_ephemeris_type": 0,
        "meta_classification_type": "U",
        "meta_norad_cat_id": 33984,
        "meta_element_set_no": 999,
        "meta_rev_at_epoch": 89280,
        "meta_bstar": 0.00098923305,
        "meta_mean_motion_dot": 5.474e-05,
        "meta_mean_motion_ddot": 0,
        "tle_line1": "1 33984U 93036FT  25361.34197809  .00005474  00000+0  98923-3 0  9999",
        "tle_line2": "2 33984  74.0096 318.9026 0022377 152.4294   7.8104 14.66493256892805"
      },
      "geometry": {
        "type": "Point",
        "coordinates": [
          51.54937886605467,
          73.9765668200211
        ]
      }
    }
  ]
}